[{"OBJECT_NAME":"PRAETORIAN SDA_603","OBJECT_ID":"2025-203B","EPOCH":"2026-03-09T13:37:04.528992","MEAN_MOTION":13.83903559,"ECCENTRICITY":0.001079,"INCLINATION":81.3003,"RA_OF_ASC_NODE":102.8981,"ARG_OF_PERICENTER":102.3539,"MEAN_ANOMALY":257.8826,"EPHEMERIS_TYPE":0,"CLASSIFICATION_TYPE":"U","NORAD_CAT_ID":65566,"ELEMENT_SET_NO":999,"REV_AT_EPOCH":2492,"BSTAR":0.0001631,"MEAN_MOTION_DOT":1.93e-6,"MEAN_MOTION_DDOT":0},{"OBJECT_NAME":"COSMOS 2279","OBJECT_ID":"1994-024A","EPOCH":"2026-03-09T15:48:28.113408","MEAN_MOTION":13.76638277,"ECCENTRICITY":0.00353263,"INCLINATION":82.9464,"RA_OF_ASC_NODE":288.6244,"ARG_OF_PERICENTER":167.8385,"MEAN_ANOMALY":192.3633,"EPHEMERIS_TYPE":0,"CLASSIFICATION_TYPE":"U","NORAD_CAT_ID":23092,"ELEMENT_SET_NO":999,"REV_AT_EPOCH":60036,"BSTAR":4.371237e-5,"MEAN_MOTION_DOT":5.8e-7,"MEAN_MOTION_DDOT":0}]
